{
  "type": "FeatureCollection",
  "features": [
    {
      "type": "Feature",
      "properties": {
        "norad_id": 15362,
        "name": "NOVA 3",
        "group": "nnss",
        "lat": -56.6011401759354,
        "lon": 80.64817702086832,
        "alt_km": 1163.8526369158808,
        "timestamp": "2025-12-06T14:35:37.394662+00:00",
        "meta_object_name": "NOVA 3",
        "meta_object_id": "1984-110A",
        "meta_epoch": "2025-12-06T05:57:58.790304",
        "meta_mean_motion": 13.23043415,
        "meta_eccentricity": 0.00310279,
        "meta_inclination": 90.1224,
        "meta_ra_of_asc_node": 80.4582,
        "meta_arg_of_pericenter": 350.1781,
        "meta_mean_anomaly": 42.3719,
        "meta_ephemeris_type": 0,
        "meta_classification_type": "U",
        "meta_norad_cat_id": 15362,
        "meta_element_set_no": 999,
        "meta_rev_at_epoch": 98613,
        "meta_bstar": 0.00028227425,
        "meta_mean_motion_dot": 1.27e-06,
        "meta_mean_motion_ddot": 0,
        "tle_line1": "1 15362U 84110A   25340.24859711  .00000127  00000+0  28227-3 0  9995",
        "tle_line2": "2 15362  90.1224  80.4582 0031027 350.1781  42.3719 13.23043415986131"
      },
      "geometry": {
        "type": "Point",
        "coordinates": [
          80.64817702086832,
          -56.6011401759354
        ]
      }
    },
    {
      "type": "Feature",
      "properties": {
        "norad_id": 15935,
        "name": "OSCAR 30",
        "group": "nnss",
        "lat": 82.92520448682845,
        "lon": -78.9243864155003,
        "alt_km": 989.75154302179,
        "timestamp": "2025-12-06T14:35:37.394672+00:00",
        "meta_object_name": "OSCAR 30",
        "meta_object_id": "1985-066A",
        "meta_epoch": "2025-12-06T02:22:56.966880",
        "meta_mean_motion": 13.36076545,
        "meta_eccentricity": 0.01693734,
        "meta_inclination": 90.1648,
        "meta_ra_of_asc_node": 99.7386,
        "meta_arg_of_pericenter": 102.4366,
        "meta_mean_anomaly": 68.9207,
        "meta_ephemeris_type": 0,
        "meta_classification_type": "U",
        "meta_norad_cat_id": 15935,
        "meta_element_set_no": 999,
        "meta_rev_at_epoch": 96364,
        "meta_bstar": 0.00024126207,
        "meta_mean_motion_dot": 1.44e-06,
        "meta_mean_motion_ddot": 0,
        "tle_line1": "1 15935U 85066A   25340.09927045  .00000144  00000+0  24126-3 0  9994",
        "tle_line2": "2 15935  90.1648  99.7386 0169373 102.4366  68.9207 13.36076545963646"
      },
      "geometry": {
        "type": "Point",
        "coordinates": [
          -78.9243864155003,
          82.92520448682845
        ]
      }
    },
    {
      "type": "Feature",
      "properties": {
        "norad_id": 15936,
        "name": "OSCAR 24",
        "group": "nnss",
        "lat": 2.384945209197439,
        "lon": -87.79560776449543,
        "alt_km": 1081.5638898163197,
        "timestamp": "2025-12-06T14:35:37.394683+00:00",
        "meta_object_name": "OSCAR 24",
        "meta_object_id": "1985-066B",
        "meta_epoch": "2025-12-06T01:59:27.678336",
        "meta_mean_motion": 13.35934256,
        "meta_eccentricity": 0.01703885,
        "meta_inclination": 90.1788,
        "meta_ra_of_asc_node": 92.1877,
        "meta_arg_of_pericenter": 108.9205,
        "meta_mean_anomaly": 62.7783,
        "meta_ephemeris_type": 0,
        "meta_classification_type": "U",
        "meta_norad_cat_id": 15936,
        "meta_element_set_no": 999,
        "meta_rev_at_epoch": 96554,
        "meta_bstar": 0.0002288096,
        "meta_mean_motion_dot": 1.37e-06,
        "meta_mean_motion_ddot": 0,
        "tle_line1": "1 15936U 85066B   25340.08295924  .00000137  00000+0  22881-3 0  9996",
        "tle_line2": "2 15936  90.1788  92.1877 0170388 108.9205  62.7783 13.35934256965548"
      },
      "geometry": {
        "type": "Point",
        "coordinates": [
          -87.79560776449543,
          2.384945209197439
        ]
      }
    },
    {
      "type": "Feature",
      "properties": {
        "norad_id": 17070,
        "name": "POLAR BEAR",
        "group": "nnss",
        "lat": -45.62240688688975,
        "lon": 4.409615505946164,
        "alt_km": 986.699535561198,
        "timestamp": "2025-12-06T14:35:37.394693+00:00",
        "meta_object_name": "POLAR BEAR",
        "meta_object_id": "1986-088A",
        "meta_epoch": "2025-12-06T07:21:28.759968",
        "meta_mean_motion": 13.75248882,
        "meta_eccentricity": 0.00405397,
        "meta_inclination": 89.6179,
        "meta_ra_of_asc_node": 184.031,
        "meta_arg_of_pericenter": 137.9418,
        "meta_mean_anomaly": 35.4001,
        "meta_ephemeris_type": 0,
        "meta_classification_type": "U",
        "meta_norad_cat_id": 17070,
        "meta_element_set_no": 999,
        "meta_rev_at_epoch": 95890,
        "meta_bstar": 0.00017457342,
        "meta_mean_motion_dot": 1.8e-06,
        "meta_mean_motion_ddot": 0,
        "tle_line1": "1 17070U 86088A   25340.30658287  .00000180  00000+0  17457-3 0  9993",
        "tle_line2": "2 17070  89.6179 184.0310 0040539 137.9418  35.4001 13.75248882958900"
      },
      "geometry": {
        "type": "Point",
        "coordinates": [
          4.409615505946164,
          -45.62240688688975
        ]
      }
    },
    {
      "type": "Feature",
      "properties": {
        "norad_id": 18361,
        "name": "OSCAR 27",
        "group": "nnss",
        "lat": 71.16220218156869,
        "lon": 77.94532186166082,
        "alt_km": 1159.7836224942184,
        "timestamp": "2025-12-06T14:35:37.394704+00:00",
        "meta_object_name": "OSCAR 27",
        "meta_object_id": "1987-080A",
        "meta_epoch": "2025-12-06T07:05:33.751392",
        "meta_mean_motion": 13.44904671,
        "meta_eccentricity": 0.01025132,
        "meta_inclination": 90.3742,
        "meta_ra_of_asc_node": 79.0312,
        "meta_arg_of_pericenter": 242.5023,
        "meta_mean_anomaly": 116.5676,
        "meta_ephemeris_type": 0,
        "meta_classification_type": "U",
        "meta_norad_cat_id": 18361,
        "meta_element_set_no": 999,
        "meta_rev_at_epoch": 87470,
        "meta_bstar": 0.000299663,
        "meta_mean_motion_dot": 1.89e-06,
        "meta_mean_motion_ddot": 0,
        "tle_line1": "1 18361U 87080A   25340.29552953  .00000189  00000+0  29966-3 0  9998",
        "tle_line2": "2 18361  90.3742  79.0312 0102513 242.5023 116.5676 13.44904671874705"
      },
      "geometry": {
        "type": "Point",
        "coordinates": [
          77.94532186166082,
          71.16220218156869
        ]
      }
    },
    {
      "type": "Feature",
      "properties": {
        "norad_id": 18362,
        "name": "OSCAR 29",
        "group": "nnss",
        "lat": 86.45938235823476,
        "lon": -94.4165019830016,
        "alt_km": 1161.947444163411,
        "timestamp": "2025-12-06T14:35:37.394714+00:00",
        "meta_object_name": "OSCAR 29",
        "meta_object_id": "1987-080B",
        "meta_epoch": "2025-12-06T05:16:35.442624",
        "meta_mean_motion": 13.44446542,
        "meta_eccentricity": 0.01037263,
        "meta_inclination": 90.3754,
        "meta_ra_of_asc_node": 79.4867,
        "meta_arg_of_pericenter": 266.136,
        "meta_mean_anomaly": 109.6931,
        "meta_ephemeris_type": 0,
        "meta_classification_type": "U",
        "meta_norad_cat_id": 18362,
        "meta_element_set_no": 999,
        "meta_rev_at_epoch": 87422,
        "meta_bstar": 0.00025097464,
        "meta_mean_motion_dot": 1.58e-06,
        "meta_mean_motion_ddot": 0,
        "tle_line1": "1 18362U 87080B   25340.21985466  .00000158  00000+0  25097-3 0  9997",
        "tle_line2": "2 18362  90.3754  79.4867 0103726 266.1360 109.6931 13.44446542874223"
      },
      "geometry": {
        "type": "Point",
        "coordinates": [
          -94.4165019830016,
          86.45938235823476
        ]
      }
    },
    {
      "type": "Feature",
      "properties": {
        "norad_id": 19070,
        "name": "OSCAR 23",
        "group": "nnss",
        "lat": -57.800498350267034,
        "lon": -164.3088217458363,
        "alt_km": 1053.2855922963845,
        "timestamp": "2025-12-06T14:35:37.394724+00:00",
        "meta_object_name": "OSCAR 23",
        "meta_object_id": "1988-033A",
        "meta_epoch": "2025-12-06T00:47:23.463744",
        "meta_mean_motion": 13.27785596,
        "meta_eccentricity": 0.01889685,
        "meta_inclination": 90.3219,
        "meta_ra_of_asc_node": 16.1847,
        "meta_arg_of_pericenter": 198.5931,
        "meta_mean_anomaly": 170.0577,
        "meta_ephemeris_type": 0,
        "meta_classification_type": "U",
        "meta_norad_cat_id": 19070,
        "meta_element_set_no": 999,
        "meta_rev_at_epoch": 82164,
        "meta_bstar": 0.0002557335,
        "meta_mean_motion_dot": 1.35e-06,
        "meta_mean_motion_ddot": 0,
        "tle_line1": "1 19070U 88033A   25340.03291046  .00000135  00000+0  25573-3 0  9991",
        "tle_line2": "2 19070  90.3219  16.1847 0188968 198.5931 170.0577 13.27785596821647"
      },
      "geometry": {
        "type": "Point",
        "coordinates": [
          -164.3088217458363,
          -57.800498350267034
        ]
      }
    }
  ]
}